{"type": "FeatureCollection", "features": [ {"type": "Feature", "properties": {"norad_id": 51444, "name": "CSG-2", "group": "resource", "lat": -15.40764480321977, "lon": -17.198231049023107, "alt_km": 627.7335553924468, "timestamp": "2025-12-09T14:52:25.823789+00:00", "meta": {"OBJECT_NAME": "CSG-2", "OBJECT_ID": "2022-008A", "EPOCH": "2025-12-09T05:53:37.197024", "MEAN_MOTION": 14.82156061, "ECCENTRICITY": 0.00014935, "INCLINATION": 97.8802, "RA_OF_ASC_NODE": 164.6209, "ARG_OF_PERICENTER": 83.1896, "MEAN_ANOMALY": 276.9487, "EPHEMERIS_TYPE": 0, "CLASSIFICATION_TYPE": "U", "NORAD_CAT_ID": 51444, "ELEMENT_SET_NO": 999, "REV_AT_EPOCH": 20845, "BSTAR": 3.8911835e-05, "MEAN_MOTION_DOT": 2.58e-06, "MEAN_MOTION_DDOT": 0}, "tle": {"line1": "1 51444U 22008A   25343.24556941  .00000258  00000+0  38912-4 0  9994", "line2": "2 51444  97.8802 164.6209 0001493  83.1896 276.9487 14.82156061208450"}}, "geometry": {"type": "Point", "coordinates": [-17.198231049023107, -15.40764480321977]}}, {"type": "Feature", "properties": {"norad_id": 52912, "name": "GAOFEN-12 03", "group": "resource", "lat": 38.78682448670066, "lon": 57.40463248454467, "alt_km": 627.3036770694189, "timestamp": "2025-12-09T14:52:25.823799+00:00", "meta": {"OBJECT_NAME": "GAOFEN-12 03", "OBJECT_ID": "2022-069A", "EPOCH": "2025-12-09T06:07:30.201024", "MEAN_MOTION": 14.79596444, "ECCENTRICITY": 0.00022774, "INCLINATION": 97.8482, "RA_OF_ASC_NODE": 230.6844, "ARG_OF_PERICENTER": 66.1993, "MEAN_ANOMALY": 293.9458, "EPHEMERIS_TYPE": 0, "CLASSIFICATION_TYPE": "U", "NORAD_CAT_ID": 52912, "ELEMENT_SET_NO": 999, "REV_AT_EPOCH": 18652, "BSTAR": 0.00026765728, "MEAN_MOTION_DOT": 1.955e-05, "MEAN_MOTION_DDOT": 0}, "tle": {"line1": "1 52912U 22069A   25343.25521066  .00001955  00000+0  26766-3 0  9991", "line2": "2 52912  97.8482 230.6844 0002277  66.1993 293.9458 14.79596444186523"}}, "geometry": {"type": "Point", "coordinates": [57.40463248454467, 38.78682448670066]}}, {"type": "Feature", "properties": {"norad_id": 54754, "name": "SWOT", "group": "resource", "lat": -70.00999440467233, "lon": -105.97401169392019, "alt_km": 900.5400597455127, "timestamp": "2025-12-09T14:52:25.823809+00:00", "meta": {"OBJECT_NAME": "SWOT", "OBJECT_ID": "2022-173A", "EPOCH": "2025-12-09T06:39:11.472768", "MEAN_MOTION": 14.00173985, "ECCENTRICITY": 3.392e-05, "INCLINATION": 77.6103, "RA_OF_ASC_NODE": 291.6638, "ARG_OF_PERICENTER": 122.31, "MEAN_ANOMALY": 237.8085, "EPHEMERIS_TYPE": 0, "CLASSIFICATION_TYPE": "U", "NORAD_CAT_ID": 54754, "ELEMENT_SET_NO": 999, "REV_AT_EPOCH": 15257, "BSTAR": 8.3145389e-05, "MEAN_MOTION_DOT": 1.2e-06, "MEAN_MOTION_DDOT": 0}, "tle": {"line1": "1 54754U 22173A   25343.27721612  .00000120  00000+0  83145-4 0  9992", "line2": "2 54754  77.6103 291.6638 0000339 122.3100 237.8085 14.00173985152571"}}, "geometry": {"type": "Point", "coordinates": [-105.97401169392019, -70.00999440467233]}}, {"type": "Feature", "properties": {"norad_id": 57654, "name": "GAOFEN-12 04", "group": "resource", "lat": -50.19543224565753, "lon": -90.96912465112146, "alt_km": 637.7320898958205, "timestamp": "2025-12-09T14:52:25.823819+00:00", "meta": {"OBJECT_NAME": "GAOFEN-12 04", "OBJECT_ID": "2023-123A", "EPOCH": "2025-12-09T06:59:18.771072", "MEAN_MOTION": 14.79685128, "ECCENTRICITY": 0.00013614, "INCLINATION": 97.9118, "RA_OF_ASC_NODE": 259.1007, "ARG_OF_PERICENTER": 71.9134, "MEAN_ANOMALY": 288.2225, "EPHEMERIS_TYPE": 0, "CLASSIFICATION_TYPE": "U", "NORAD_CAT_ID": 57654, "ELEMENT_SET_NO": 999, "REV_AT_EPOCH": 12454, "BSTAR": 0.00034117721, "MEAN_MOTION_DOT": 2.51e-05, "MEAN_MOTION_DDOT": 0}, "tle": {"line1": "1 57654U 23123A   25343.29118948  .00002510  00000+0  34118-3 0  9994", "line2": "2 57654  97.9118 259.1007 0001361  71.9134 288.2225 14.79685128124540"}}, "geometry": {"type": "Point", "coordinates": [-90.96912465112146, -50.19543224565753]}}, {"type": "Feature", "properties": {"norad_id": 59065, "name": "PARS 1", "group": "resource", "lat": 18.889872262959795, "lon": -48.08447394516244, "alt_km": 439.85163869965345, "timestamp": "2025-12-09T14:52:25.823830+00:00", "meta": {"OBJECT_NAME": "PARS 1", "OBJECT_ID": "2024-039Q", "EPOCH": "2025-12-09T06:59:54.678048", "MEAN_MOTION": 15.40854363, "ECCENTRICITY": 0.00126931, "INCLINATION": 97.4637, "RA_OF_ASC_NODE": 314.1516, "ARG_OF_PERICENTER": 82.4422, "MEAN_ANOMALY": 277.8266, "EPHEMERIS_TYPE": 0, "CLASSIFICATION_TYPE": "U", "NORAD_CAT_ID": 59065, "ELEMENT_SET_NO": 999, "REV_AT_EPOCH": 9935, "BSTAR": 0.00037019482, "MEAN_MOTION_DOT": 0.00015157, "MEAN_MOTION_DDOT": 0}, "tle": {"line1": "1 59065U 24039Q   25343.29160507  .00015157  00000+0  37019-3 0  9991", "line2": "2 59065  97.4637 314.1516 0012693  82.4422 277.8266 15.40854363 99350"}}, "geometry": {"type": "Point", "coordinates": [-48.08447394516244, 18.889872262959795]}}, {"type": "Feature", "properties": {"norad_id": 59371, "name": "RESURS-P 4", "group": "resource", "lat": -78.24676588071515, "lon": 72.26208103725563, "alt_km": 478.1193216765014, "timestamp": "2025-12-09T14:52:25.823840+00:00", "meta": {"OBJECT_NAME": "RESURS-P 4", "OBJECT_ID": "2024-061A", "EPOCH": "2025-12-09T07:28:08.409216", "MEAN_MOTION": 15.32043396, "ECCENTRICITY": 0.00017544, "INCLINATION": 97.2543, "RA_OF_ASC_NODE": 289.7115, "ARG_OF_PERICENTER": 52.9066, "MEAN_ANOMALY": 307.2336, "EPHEMERIS_TYPE": 0, "CLASSIFICATION_TYPE": "U", "NORAD_CAT_ID": 59371, "ELEMENT_SET_NO": 999, "REV_AT_EPOCH": 9468, "BSTAR": 0.00018806461, "MEAN_MOTION_DOT": 5.742e-05, "MEAN_MOTION_DDOT": 0}, "tle": {"line1": "1 59371U 24061A   25343.31120844  .00005742  00000+0  18806-3 0  9991", "line2": "2 59371  97.2543 289.7115 0001754  52.9066 307.2336 15.32043396 94682"}}, "geometry": {"type": "Point", "coordinates": [72.26208103725563, -78.24676588071515]}}, {"type": "Feature", "properties": {"norad_id": 59625, "name": "LEGION 1", "group": "resource", "lat": -58.5271074271012, "lon": 70.74895183442827, "alt_km": 521.2546988628783, "timestamp": "2025-12-09T14:52:25.823851+00:00", "meta": {"OBJECT_NAME": "LEGION 1", "OBJECT_ID": "2024-081A", "EPOCH": "2025-12-09T07:12:59.762880", "MEAN_MOTION": 15.1642643, "ECCENTRICITY": 0.00042423, "INCLINATION": 97.5212, "RA_OF_ASC_NODE": 57.9684, "ARG_OF_PERICENTER": 332.0735, "MEAN_ANOMALY": 28.0269, "EPHEMERIS_TYPE": 0, "CLASSIFICATION_TYPE": "U", "NORAD_CAT_ID": 59625, "ELEMENT_SET_NO": 999, "REV_AT_EPOCH": 8875, "BSTAR": 0.00039034659, "MEAN_MOTION_DOT": 7.525e-05, "MEAN_MOTION_DDOT": 0}, "tle": {"line1": "1 59625U 24081A   25343.30069170  .00007525  00000+0  39035-3 0  9996", "line2": "2 59625  97.5212  57.9684 0004242 332.0735  28.0269 15.16426430 88756"}}, "geometry": {"type": "Point", "coordinates": [70.74895183442827, -58.5271074271012]}}, {"type": "Feature", "properties": {"norad_id": 59626, "name": "LEGION 2", "group": "resource", "lat": 58.72742462075548, "lon": -109.0632639248993, "alt_km": 514.9527419256738, "timestamp": "2025-12-09T14:52:25.823862+00:00", "meta": {"OBJECT_NAME": "LEGION 2", "OBJECT_ID": "2024-081B", "EPOCH": "2025-12-09T06:25:34.721472", "MEAN_MOTION": 15.16439022, "ECCENTRICITY": 0.00058375, "INCLINATION": 97.5216, "RA_OF_ASC_NODE": 58.0228, "ARG_OF_PERICENTER": 308.5513, "MEAN_ANOMALY": 51.5196, "EPHEMERIS_TYPE": 0, "CLASSIFICATION_TYPE": "U", "NORAD_CAT_ID": 59626, "ELEMENT_SET_NO": 999, "REV_AT_EPOCH": 8875, "BSTAR": 0.0003690163, "MEAN_MOTION_DOT": 7.113e-05, "MEAN_MOTION_DDOT": 0}, "tle": {"line1": "1 59626U 24081B   25343.26776298  .00007113  00000+0  36902-3 0  9991", "line2": "2 59626  97.5216  58.0228 0005837 308.5513  51.5196 15.16439022 88751"}}, "geometry": {"type": "Point", "coordinates": [-109.0632639248993, 58.72742462075548]}}, {"type": "Feature", "properties": {"norad_id": 60182, "name": "ALOS-4 (DAICHI-4)", "group": "resource", "lat": -12.377612783923599, "lon": -103.23988732976576, "alt_km": 635.4857657284983, "timestamp": "2025-12-09T14:52:25.823872+00:00", "meta": {"OBJECT_NAME": "ALOS-4 (DAICHI-4)", "OBJECT_ID": "2024-123A", "EPOCH": "2025-12-09T05:53:28.207104", "MEAN_MOTION": 14.79467524, "ECCENTRICITY": 0.00014343, "INCLINATION": 97.9226, "RA_OF_ASC_NODE": 78.1425, "ARG_OF_PERICENTER": 103.1642, "MEAN_ANOMALY": 256.973, "EPHEMERIS_TYPE": 0, "CLASSIFICATION_TYPE": "U", "NORAD_CAT_ID": 60182, "ELEMENT_SET_NO": 999, "REV_AT_EPOCH": 7779, "BSTAR": 0.00038256044, "MEAN_MOTION_DOT": 2.806e-05, "MEAN_MOTION_DDOT": 0}, "tle": {"line1": "1 60182U 24123A   25343.24546536  .00002806  00000+0  38256-3 0  9993", "line2": "2 60182  97.9226  78.1425 0001434 103.1642 256.9730 14.79467524 77791"}}, "geometry": {"type": "Point", "coordinates": [-103.23988732976576, -12.377612783923599]}}, {"type": "Feature", "properties": {"norad_id": 60452, "name": "LEGION 3", "group": "resource", "lat": 21.748249182474297, "lon": 123.331228876823, "alt_km": 507.2705705005792, "timestamp": "2025-12-09T14:52:25.823883+00:00", "meta": {"OBJECT_NAME": "LEGION 3", "OBJECT_ID": "2024-146A", "EPOCH": "2025-12-09T06:18:47.856960", "MEAN_MOTION": 15.15704757, "ECCENTRICITY": 0.00145001, "INCLINATION": 45.0026, "RA_OF_ASC_NODE": 328.7701, "ARG_OF_PERICENTER": 179.7738, "MEAN_ANOMALY": 180.3149, "EPHEMERIS_TYPE": 0, "CLASSIFICATION_TYPE": "U", "NORAD_CAT_ID": 60452, "ELEMENT_SET_NO": 999, "REV_AT_EPOCH": 7320, "BSTAR": 0.0004039194, "MEAN_MOTION_DOT": 7.585e-05, "MEAN_MOTION_DDOT": 0}, "tle": {"line1": "1 60452U 24146A   25343.26305390  .00007585  00000+0  40392-3 0  9994", "line2": "2 60452  45.0026 328.7701 0014500 179.7738 180.3149 15.15704757 73206"}}, "geometry": {"type": "Point", "coordinates": [123.331228876823, 21.748249182474297]}}]}